{
  "version": 0.6,
  "generator": "Overpass API",
  "osm3s": {
    "timestamp_osm_base": "2026-01-16T12:00:00Z",
    "copyright": "The data included in this document is from www.openstreetmap.org. It is made available under ODbL."
  },
  "elements": [
    {
      "type": "node",
      "id": 3456789012,
      "lat": 55.9533,
      "lon": -3.1883,
      "tags": {
        "name": "Edinburgh Padel Centre",
        "name:en": "Edinburgh Padel Centre",
        "sport": "padel",
        "leisure": "sports_centre",
        "addr:street": "New Park Square",
        "addr:housenumber": "1",
        "addr:city": "Edinburgh",
        "addr:postcode": "EH14 4TZ",
        "addr:country": "GB",
        "phone": "+44 131 539 7071",
        "email": "info@edinburghpadel.com",
        "website": "https://www.game4padel.co.uk/edinburgh-park",
        "opening_hours": "Mo-Fr 06:00-22:00; Sa-Su 08:00-20:00",
        "operator": "Game4Padel",
        "building": "yes",
        "wheelchair": "yes",
        "parking": "yes",
        "capacity:courts": "4",
        "surface": "artificial_turf",
        "indoor": "yes",
        "description": "Premier indoor padel facility with 4 courts, professional coaching, and cafe"
      }
    },
    {
      "type": "way",
      "id": 4567890123,
      "nodes": [1001, 1002, 1003, 1004, 1001],
      "tags": {
        "name": "Craiglockhart Tennis Centre",
        "sport": "tennis",
        "leisure": "sports_centre",
        "addr:street": "Colinton Road",
        "addr:city": "Edinburgh",
        "addr:postcode": "EH14 1AR",
        "phone": "+44 131 444 1969",
        "website": "https://www.edinburghleisure.co.uk/venues/craiglockhart-tennis-and-sports-centre",
        "opening_hours": "Mo-Su 07:00-22:00",
        "building": "yes",
        "capacity:courts": "8",
        "surface": "hard",
        "outdoor": "yes",
        "floodlit": "yes",
        "description": "8 outdoor tennis courts with floodlights, coaching available"
      }
    },
    {
      "type": "node",
      "id": 5678901234,
      "lat": 55.9412,
      "lon": -3.2050,
      "tags": {
        "name": "The Grange Club",
        "name:en": "The Grange Club",
        "sport": "tennis;squash",
        "leisure": "sports_centre",
        "club": "sport",
        "addr:street": "Whitehouse Loan",
        "addr:housenumber": "37",
        "addr:city": "Edinburgh",
        "addr:postcode": "EH9 2AT",
        "phone": "+44 131 337 3346",
        "email": "secretary@thegrangeclub.co.uk",
        "website": "https://www.thegrangeclub.co.uk",
        "opening_hours": "Mo-Su 07:00-23:00",
        "tennis:indoor": "6",
        "tennis:outdoor": "4",
        "squash:courts": "3",
        "gym": "yes",
        "sauna": "yes",
        "cafe": "yes",
        "restaurant": "yes",
        "parking:spaces": "50",
        "wheelchair": "limited",
        "description": "Premium members club with tennis, squash, gym, spa facilities"
      }
    },
    {
      "type": "node",
      "id": 6789012345,
      "lat": 55.9455,
      "lon": -3.1925,
      "tags": {
        "name": "Meadowbank Sports Centre",
        "sport": "multi",
        "leisure": "sports_centre",
        "addr:street": "London Road",
        "addr:city": "Edinburgh",
        "addr:postcode": "EH7 6AE",
        "phone": "+44 131 661 5351",
        "website": "https://www.edinburghleisure.co.uk/venues/meadowbank-sports-centre",
        "opening_hours": "Mo-Fr 06:30-22:00; Sa-Su 08:00-18:00",
        "building": "yes",
        "badminton": "yes",
        "badminton:courts": "12",
        "football:indoor": "yes",
        "football:5_a_side": "yes",
        "gym": "yes",
        "swimming_pool": "yes",
        "swimming_pool:lanes": "6",
        "swimming_pool:length": "25",
        "cafe": "yes",
        "parking": "yes",
        "parking:spaces": "200",
        "wheelchair": "yes",
        "description": "Multi-sport facility with pool, badminton courts, gym, and 5-a-side football"
      }
    },
    {
      "type": "node",
      "id": 7890123456,
      "lat": 55.9320,
      "lon": -3.1750,
      "tags": {
        "name": "Portobello Swim Centre",
        "sport": "swimming",
        "leisure": "swimming_pool",
        "addr:street": "Bath Street",
        "addr:city": "Edinburgh",
        "addr:postcode": "EH15 1HF",
        "phone": "+44 131 669 6888",
        "website": "https://www.edinburghleisure.co.uk/venues/portobello-swim-centre",
        "opening_hours": "Mo-Fr 06:00-22:00; Sa-Su 07:00-18:00",
        "building": "yes",
        "swimming_pool": "yes",
        "swimming_pool:type": "indoor",
        "swimming_pool:lanes": "6",
        "swimming_pool:length": "25",
        "sauna": "yes",
        "steam_room": "yes",
        "gym": "yes",
        "cafe": "yes",
        "swimming:lessons": "yes",
        "family_swim": "yes",
        "adult_only_swim": "yes",
        "wheelchair": "yes",
        "description": "Indoor swimming pool with sauna, steam room, gym and cafe"
      }
    },
    {
      "type": "node",
      "id": 8901234567,
      "lat": 55.9445,
      "lon": -3.2755,
      "tags": {
        "name": "Murrayfield Ice Rink",
        "sport": "ice_hockey;ice_skating",
        "leisure": "ice_rink",
        "addr:street": "Riversdale Crescent",
        "addr:city": "Edinburgh",
        "addr:postcode": "EH12 5XN",
        "phone": "+44 131 337 6933",
        "website": "https://www.murrayfieldic erink.co.uk",
        "opening_hours": "Mo-Fr 12:00-22:00; Sa-Su 09:00-22:00",
        "building": "yes",
        "ice_rink:size": "60m x 30m",
        "ice_skating:public": "yes",
        "ice_hockey": "yes",
        "curling": "yes",
        "skating:lessons": "yes",
        "cafe": "yes",
        "parking": "yes",
        "wheelchair": "yes"
      }
    }
  ]
}
